STARLINK-35041          
1 66188U 25243M   25311.04153864 -.00392102  00000+0 -22966-2 0  9993
2 66188  53.1528  99.4051 0000813  39.5862 320.5219 15.78653335  1816
STARLINK-34694          
1 66189U 25243N   25311.04078807 -.00427000  00000+0 -25195-2 0  9990
2 66189  53.1525  99.3993 0000560  43.5800 316.5266 15.78583329  1816
STARLINK-34863          
1 66190U 25243P   25310.91561066  .00155762  00000+0  82984-3 0  9992
2 66190  53.1524 100.0405 0002709  35.0902 325.0298 15.79473090  1792
STARLINK-35061          
1 66191U 25243Q   25310.91184330 -.00253440  00000+0 -14423-2 0  9994
2 66191  53.1518 100.0160 0001158  53.9480 306.1649 15.78913472  1793
STARLINK-34937          
1 66192U 25243R   25311.22888359 -.00263445  00000+0 -15659-2 0  9990
2 66192  53.1519  98.4377 0001179 168.9317 191.1731 15.77977923  1844
STARLINK-35197          
1 66193U 25243S   25310.97589687  .00081365  00000+0  44827-3 0  9991
2 66193  53.1523  99.7040 0002513  29.0921 331.0241 15.79011378  1804
STARLINK-35374          
1 66194U 25243T   25310.91294816  .00112624  00000+0  60870-3 0  9992
2 66194  53.1523 100.0230 0002834  29.0003 331.1176 15.79303425  1792
STARLINK-34813          
1 66195U 25243U   25311.03999605 -.00420977  00000+0 -24898-2 0  9999
2 66195  53.1527  99.3939 0000618   5.6730 354.4298 15.78515480  1819
STARLINK-35409          
1 66196U 25243V   25310.91370541  .00104935  00000+0  56705-3 0  9992
2 66196  53.1523 100.0286 0002781  25.9837 334.1324 15.79337028  1790
STARLINK-35518          
1 66197U 25243X   25310.97781653 -.00431835  00000+0 -25266-2 0  9990
2 66197  53.1524  99.7172 0000685 189.4264 170.6745 15.78781660  1807
STARLINK-35259          
1 66198U 25243W   25310.97041912 -.00372560  00000+0 -21985-2 0  9991
2 66198  53.1522  99.6652 0000241  66.7764 293.3283 15.78438798  1809
STARLINK-35509          
1 66199U 25243Y   25310.90673311 -.00328470  00000+0 -19053-2 0  9993
2 66199  53.1523  99.9797 0000915  56.5726 303.5383 15.78697458  1790
