CCSDS_OMM_VERS = 2.0
CREATION_DATE  = 
ORIGINATOR     = 

OBJECT_NAME    = STARLINK-35041
OBJECT_ID      = 2025-243M
CENTER_NAME    = EARTH
REF_FRAME      = TEME
TIME_SYSTEM    = UTC
MEAN_ELEMENT_THEORY = SGP/SGP4

EPOCH          = 2025-11-07T00:59:48.938496
MEAN_MOTION    = 15.78653335
ECCENTRICITY   = .00008133
INCLINATION    = 53.1528
RA_OF_ASC_NODE = 99.4051
ARG_OF_PERICENTER = 39.5862
MEAN_ANOMALY   = 320.5219

EPHEMERIS_TYPE = 0
CLASSIFICATION_TYPE = U
NORAD_CAT_ID   = 66188
ELEMENT_SET_NO = 999
REV_AT_EPOCH   = 181
BSTAR          = -.2296586E-2
MEAN_MOTION_DOT = -.392102E-2
MEAN_MOTION_DDOT = 0

CCSDS_OMM_VERS = 2.0
CREATION_DATE  = 
ORIGINATOR     = 

OBJECT_NAME    = STARLINK-34694
OBJECT_ID      = 2025-243N
CENTER_NAME    = EARTH
REF_FRAME      = TEME
TIME_SYSTEM    = UTC
MEAN_ELEMENT_THEORY = SGP/SGP4

EPOCH          = 2025-11-07T00:58:44.089248
MEAN_MOTION    = 15.78583329
ECCENTRICITY   = .00005605
INCLINATION    = 53.1525
RA_OF_ASC_NODE = 99.3993
ARG_OF_PERICENTER = 43.5800
MEAN_ANOMALY   = 316.5266

EPHEMERIS_TYPE = 0
CLASSIFICATION_TYPE = U
NORAD_CAT_ID   = 66189
ELEMENT_SET_NO = 999
REV_AT_EPOCH   = 181
BSTAR          = -.25195257E-2
MEAN_MOTION_DOT = -.427E-2
MEAN_MOTION_DDOT = 0

CCSDS_OMM_VERS = 2.0
CREATION_DATE  = 
ORIGINATOR     = 

OBJECT_NAME    = STARLINK-34863
OBJECT_ID      = 2025-243P
CENTER_NAME    = EARTH
REF_FRAME      = TEME
TIME_SYSTEM    = UTC
MEAN_ELEMENT_THEORY = SGP/SGP4

EPOCH          = 2025-11-06T21:58:28.761024
MEAN_MOTION    = 15.79473090
ECCENTRICITY   = .0002709
INCLINATION    = 53.1524
RA_OF_ASC_NODE = 100.0405
ARG_OF_PERICENTER = 35.0902
MEAN_ANOMALY   = 325.0298

EPHEMERIS_TYPE = 0
CLASSIFICATION_TYPE = U
NORAD_CAT_ID   = 66190
ELEMENT_SET_NO = 999
REV_AT_EPOCH   = 179
BSTAR          = .82984E-3
MEAN_MOTION_DOT = .155762E-2
MEAN_MOTION_DDOT = 0

CCSDS_OMM_VERS = 2.0
CREATION_DATE  = 
ORIGINATOR     = 

OBJECT_NAME    = STARLINK-35061
OBJECT_ID      = 2025-243Q
CENTER_NAME    = EARTH
REF_FRAME      = TEME
TIME_SYSTEM    = UTC
MEAN_ELEMENT_THEORY = SGP/SGP4

EPOCH          = 2025-11-06T21:53:03.261120
MEAN_MOTION    = 15.78913472
ECCENTRICITY   = .0001158
INCLINATION    = 53.1518
RA_OF_ASC_NODE = 100.0160
ARG_OF_PERICENTER = 53.9480
MEAN_ANOMALY   = 306.1649

EPHEMERIS_TYPE = 0
CLASSIFICATION_TYPE = U
NORAD_CAT_ID   = 66191
ELEMENT_SET_NO = 999
REV_AT_EPOCH   = 179
BSTAR          = -.14423E-2
MEAN_MOTION_DOT = -.25344E-2
MEAN_MOTION_DDOT = 0

CCSDS_OMM_VERS = 2.0
CREATION_DATE  = 
ORIGINATOR     = 

OBJECT_NAME    = STARLINK-34937
OBJECT_ID      = 2025-243R
CENTER_NAME    = EARTH
REF_FRAME      = TEME
TIME_SYSTEM    = UTC
MEAN_ELEMENT_THEORY = SGP/SGP4

EPOCH          = 2025-11-07T05:29:35.542176
MEAN_MOTION    = 15.77977923
ECCENTRICITY   = .00011791
INCLINATION    = 53.1519
RA_OF_ASC_NODE = 98.4377
ARG_OF_PERICENTER = 168.9317
MEAN_ANOMALY   = 191.1731

EPHEMERIS_TYPE = 0
CLASSIFICATION_TYPE = U
NORAD_CAT_ID   = 66192
ELEMENT_SET_NO = 999
REV_AT_EPOCH   = 184
BSTAR          = -.15659256E-2
MEAN_MOTION_DOT = -.263445E-2
MEAN_MOTION_DDOT = 0

CCSDS_OMM_VERS = 2.0
CREATION_DATE  = 
ORIGINATOR     = 

OBJECT_NAME    = STARLINK-35197
OBJECT_ID      = 2025-243S
CENTER_NAME    = EARTH
REF_FRAME      = TEME
TIME_SYSTEM    = UTC
MEAN_ELEMENT_THEORY = SGP/SGP4

EPOCH          = 2025-11-06T23:25:17.489568
MEAN_MOTION    = 15.79011378
ECCENTRICITY   = .00025138
INCLINATION    = 53.1523
RA_OF_ASC_NODE = 99.7040
ARG_OF_PERICENTER = 29.0921
MEAN_ANOMALY   = 331.0241

EPHEMERIS_TYPE = 0
CLASSIFICATION_TYPE = U
NORAD_CAT_ID   = 66193
ELEMENT_SET_NO = 999
REV_AT_EPOCH   = 180
BSTAR          = .44827368E-3
MEAN_MOTION_DOT = .81365E-3
MEAN_MOTION_DDOT = 0

CCSDS_OMM_VERS = 2.0
CREATION_DATE  = 
ORIGINATOR     = 

OBJECT_NAME    = STARLINK-35374
OBJECT_ID      = 2025-243T
CENTER_NAME    = EARTH
REF_FRAME      = TEME
TIME_SYSTEM    = UTC
MEAN_ELEMENT_THEORY = SGP/SGP4

EPOCH          = 2025-11-06T21:54:38.721024
MEAN_MOTION    = 15.79303425
ECCENTRICITY   = .0002834
INCLINATION    = 53.1523
RA_OF_ASC_NODE = 100.0230
ARG_OF_PERICENTER = 29.0003
MEAN_ANOMALY   = 331.1176

EPHEMERIS_TYPE = 0
CLASSIFICATION_TYPE = U
NORAD_CAT_ID   = 66194
ELEMENT_SET_NO = 999
REV_AT_EPOCH   = 179
BSTAR          = .6087E-3
MEAN_MOTION_DOT = .112624E-2
MEAN_MOTION_DDOT = 0

CCSDS_OMM_VERS = 2.0
CREATION_DATE  = 
ORIGINATOR     = 

OBJECT_NAME    = STARLINK-34813
OBJECT_ID      = 2025-243U
CENTER_NAME    = EARTH
REF_FRAME      = TEME
TIME_SYSTEM    = UTC
MEAN_ELEMENT_THEORY = SGP/SGP4

EPOCH          = 2025-11-07T00:57:35.658720
MEAN_MOTION    = 15.78515480
ECCENTRICITY   = .00006189
INCLINATION    = 53.1527
RA_OF_ASC_NODE = 99.3939
ARG_OF_PERICENTER = 5.6730
MEAN_ANOMALY   = 354.4298

EPHEMERIS_TYPE = 0
CLASSIFICATION_TYPE = U
NORAD_CAT_ID   = 66195
ELEMENT_SET_NO = 999
REV_AT_EPOCH   = 181
BSTAR          = -.24898147E-2
MEAN_MOTION_DOT = -.420977E-2
MEAN_MOTION_DDOT = 0

CCSDS_OMM_VERS = 2.0
CREATION_DATE  = 
ORIGINATOR     = 

OBJECT_NAME    = STARLINK-35409
OBJECT_ID      = 2025-243V
CENTER_NAME    = EARTH
REF_FRAME      = TEME
TIME_SYSTEM    = UTC
MEAN_ELEMENT_THEORY = SGP/SGP4

EPOCH          = 2025-11-06T21:55:44.147424
MEAN_MOTION    = 15.79337028
ECCENTRICITY   = .0002781
INCLINATION    = 53.1523
RA_OF_ASC_NODE = 100.0286
ARG_OF_PERICENTER = 25.9837
MEAN_ANOMALY   = 334.1324

EPHEMERIS_TYPE = 0
CLASSIFICATION_TYPE = U
NORAD_CAT_ID   = 66196
ELEMENT_SET_NO = 999
REV_AT_EPOCH   = 179
BSTAR          = .56705E-3
MEAN_MOTION_DOT = .104935E-2
MEAN_MOTION_DDOT = 0

CCSDS_OMM_VERS = 2.0
CREATION_DATE  = 
ORIGINATOR     = 

OBJECT_NAME    = STARLINK-35518
OBJECT_ID      = 2025-243X
CENTER_NAME    = EARTH
REF_FRAME      = TEME
TIME_SYSTEM    = UTC
MEAN_ELEMENT_THEORY = SGP/SGP4

EPOCH          = 2025-11-06T23:28:03.348192
MEAN_MOTION    = 15.78781660
ECCENTRICITY   = .0000685
INCLINATION    = 53.1524
RA_OF_ASC_NODE = 99.7172
ARG_OF_PERICENTER = 189.4264
MEAN_ANOMALY   = 170.6745

EPHEMERIS_TYPE = 0
CLASSIFICATION_TYPE = U
NORAD_CAT_ID   = 66197
ELEMENT_SET_NO = 999
REV_AT_EPOCH   = 180
BSTAR          = -.25266325E-2
MEAN_MOTION_DOT = -.431835E-2
MEAN_MOTION_DDOT = 0

CCSDS_OMM_VERS = 2.0
CREATION_DATE  = 
ORIGINATOR     = 

OBJECT_NAME    = STARLINK-35259
OBJECT_ID      = 2025-243W
CENTER_NAME    = EARTH
REF_FRAME      = TEME
TIME_SYSTEM    = UTC
MEAN_ELEMENT_THEORY = SGP/SGP4

EPOCH          = 2025-11-06T23:17:24.211968
MEAN_MOTION    = 15.78438798
ECCENTRICITY   = .0000241
INCLINATION    = 53.1522
RA_OF_ASC_NODE = 99.6652
ARG_OF_PERICENTER = 66.7764
MEAN_ANOMALY   = 293.3283

EPHEMERIS_TYPE = 0
CLASSIFICATION_TYPE = U
NORAD_CAT_ID   = 66198
ELEMENT_SET_NO = 999
REV_AT_EPOCH   = 180
BSTAR          = -.21984825E-2
MEAN_MOTION_DOT = -.37256E-2
MEAN_MOTION_DDOT = 0

CCSDS_OMM_VERS = 2.0
CREATION_DATE  = 
ORIGINATOR     = 

OBJECT_NAME    = STARLINK-35509
OBJECT_ID      = 2025-243Y
CENTER_NAME    = EARTH
REF_FRAME      = TEME
TIME_SYSTEM    = UTC
MEAN_ELEMENT_THEORY = SGP/SGP4

EPOCH          = 2025-11-06T21:45:41.740704
MEAN_MOTION    = 15.78697458
ECCENTRICITY   = .0000915
INCLINATION    = 53.1523
RA_OF_ASC_NODE = 99.9797
ARG_OF_PERICENTER = 56.5726
MEAN_ANOMALY   = 303.5383

EPHEMERIS_TYPE = 0
CLASSIFICATION_TYPE = U
NORAD_CAT_ID   = 66199
ELEMENT_SET_NO = 999
REV_AT_EPOCH   = 179
BSTAR          = -.19053E-2
MEAN_MOTION_DOT = -.32847E-2
MEAN_MOTION_DDOT = 0

